NAVSTAR 77 (USA 289)    
1 43873U 18109A   24125.45241622  .00000090  00000+0  00000+0 0  9991
2 43873  55.2804 122.7553 0028756 195.9694 335.9950  2.00553759 39559
